    PK10H050  2029 06  2.5456  6.072469  0.152711  174.9651   24.7982   14.0591  20220228  13.0  2.0  P/2010 H5 (Scotti)                                       MPC 74637
    PK10J030  2010 08 27.8011  2.457809  0.726209  157.5952  106.4425   13.2761  20220228  11.0  4.0  P/2010 J3 (McMillan)                                     MPC 98558
    PK10J81C  2011 04 22.2691  1.803844  0.777510   12.4240   30.8596   38.7936  20220228   9.0  4.0  P/2010 JC81 (WISE)                                       MPC 84315
    PK10T020  2024 03 19.0829  3.761553  0.322208  352.9957   58.6898    7.8875  20220228  11.5  4.0  P/2010 T2 (PANSTARRS)                                    MPC 74248
    PK10T20O  2022 11 23.9417  5.508820  0.055449  267.1429   43.2884    2.4788  20220228   9.0  4.0  P/2010 TO20 (LINEAR-Grauer)                              MPC 98558
    PK10U010  2026 09  5.1009  4.886418  0.248888   86.1067  280.6925    8.2174  20220228   9.5  4.0  P/2010 U1 (Boattini)                                     MPC 82316
    CK10U030  2019 02 25.1944  8.443352  0.996575   88.0405   43.0050   55.5420  20220228   1.0  4.0  C/2010 U3 (Boattini)                                     MPEC 2021-R75
    PK10U55H  2028 06  5.2431  2.904739  0.563469  225.1553  232.9173    8.0390  20220228  11.0  4.0  P/2010 UH55 (Spacewatch)                                 MPC 79021
    PK10W00K  2024 07 21.6127  1.784705  0.690269   40.9684   11.3317   11.4015  20220228  14.5  2.0  P/2010 WK (LINEAR)                                       MPC 75009
    PK11C020  2032 02 28.7730  5.418767  0.268995  160.7046   12.1217   10.8863  20220228   9.0  4.0  P/2011 C2 (Gibbs)                                        MPC 84021
    PK11FE3R  2029 02 12.5581  3.770095  0.450528  350.0135  190.9499   15.9771  20220228  14.0  2.0  P/2011 FR143 (Lemmon)                                    MPC 79866
    PK11J15B  2032 01 11.4283  5.030019  0.316747  111.0711  153.5815   19.1475  20220228   9.0  4.0  P/2011 JB15 (Spacewatch-Boattini)                        MPC 82317
    PK11N010  2027 12 31.3664  2.844903  0.544582  330.3555   77.5840   35.7462  20220228  11.5  4.0  P/2011 N1 (ASH)                                          MPC 87913
    PK11N01O  2024 01 16.1060  1.246376  0.774544  263.7402  295.8189   15.2459  20220228  15.0  4.0  P/2011 NO1 (Elenin)                                      MPC 75714
    PK11P010  2030 12 16.4879  5.016578  0.327814  349.0119    4.2368    5.6611  20220228   9.0  4.0  P/2011 P1 (McNaught)                                     MPC 82318
    PK11Q030  2022 08 19.3779  2.322319  0.532961  310.9898   32.0252    6.0574  20220228  13.5  4.0  P/2011 Q3 (McNaught)                                     MPC 77806
    PK11S010  2014 08 12.5600  6.857622  0.201078  192.4420  218.8508    2.6861  20220228   8.0  4.0  P/2011 S1 (Gibbs)                                        MPC 98558
    PK11UD4A  2025 02 17.3884  2.077667  0.629543   32.4075   40.4005   10.4405  20220228  17.5  4.0  P/2011 UA134 (Spacewatch-PANSTARRS)                      MPC 79022
    PK11V010  2018 10  2.3412  1.733927  0.550381  269.3430   46.8036    7.3750  20220228  15.5  4.0  P/2011 V1 (Boattini)                                     MPC 77406
    PK11W010  2022 02  7.7288  3.322009  0.287654  282.7528  161.7866    3.7185  20220228  11.5  4.0  P/2011 W1 (PANSTARRS)                                    MPC 82718
    PK11Y020  2027 10  4.1547  1.810278  0.709849  131.9209  309.3502    6.3740  20220228  15.0  4.0  P/2011 Y2 (Boattini)                                     MPC 79342
    PK12B010  2030 03 23.3389  3.859496  0.409030  162.4731   36.2154    7.6109  20220228   9.0  4.0  P/2012 B1 (PANSTARRS)                                    MPC 94669
    PK12C030  2011 10  6.7469  3.605925  0.630111  344.9542  135.3677    9.0920            13.0  4.0  P/2012 C3 (PANSTARRS)                                    MPC 78590
    PK12F020  2029 03 19.2858  2.902503  0.541685   33.3174  227.0095   14.7079  20220228  12.0  4.0  P/2012 F2 (PANSTARRS)                                    MPC 84931
    PK12G010  2020 09 30.1219  2.791006  0.329780  266.0722  283.2808   12.1750  20220228  15.0  4.0  P/2012 G1 (PANSTARRS)                                    MPEC 2022-CN4
    PK12K030  2019 08 17.3831  2.092693  0.423032  172.2243  125.8139   13.1931  20220228  15.0  4.0  P/2012 K3 (Gibbs)                                        MPC 80898
    PK12N00J  2012 06 14.4344  1.295179  0.846976  338.3691  315.5588   84.6376  20220228  14.5  4.0  P/2012 NJ (La Sagra)                                     MPC 88326
    PK12O010  2019 03  2.7588  1.435943  0.594508  238.2809   91.9585    7.4292  20220228  17.5  4.0  P/2012 O1 (McNaught)                                     MPC 81470
    PK12O020  2019 05  6.0733  1.694984  0.532434  183.4603  120.6836   24.4798  20220228  17.0  4.0  P/2012 O2 (McNaught)                                     MPC 80899
    PK12O030  2022 05 29.7734  1.613948  0.647010  344.7545  336.4137   16.6160  20220228  16.5  4.0  P/2012 O3 (McNaught)                                     MPC 82720
    PK12T020  2027 01 14.6491  4.804270  0.161847  310.5636   73.7167   12.5628  20220228  10.0  4.0  P/2012 T2 (PANSTARRS)                                    MPC 82320
    PK12T030  2027 08  7.3180  2.355419  0.617081  195.5075  114.3920    9.5636  20220228  15.0  4.0  P/2012 T3 (PANSTARRS)                                    MPC 80900
    PK12U020  2012 11 11.6283  3.573910  0.499162  228.2460  185.3138   10.7577  20220228  12.5  4.0  P/2012 U2 (PANSTARRS)                                    MPC 82720
    PK12U27S  2024 10 21.4890  1.818617  0.647963    0.8065   49.1918   39.3577  20220228  13.5  4.0  P/2012 US27 (Siding Spring)                              MPC 84024
    PK12W34A  2023 07  6.5132  3.075914  0.345539  356.0317   93.6939    6.0779  20220228  13.5  4.0  P/2012 WA34 (Lemmon-PANSTARRS)                           MPC 82721
    PK13A76L  2029 06 28.3820  2.038193  0.686306   27.0630  145.9944  144.8554  20220228  16.0  4.0  P/2013 AL76 (Catalina)                                   MPC 82721
    PK13G010  2013 12 11.7953  3.363427  0.512083   51.5044  221.3490    5.4613  20220228  11.0  4.0  P/2013 G1 (Kowalski)                                     MPC 91612
    PK13G040  2022 06 19.3898  2.622279  0.409449  214.6521  339.6383    5.9163  20220228  15.0  4.0  P/2013 G4 (PANSTARRS)                                    MPC 84025
    PK13J020  2029 03  9.1433  2.130641  0.657609   37.8067  289.3898   15.5226  20220228  13.0  4.0  P/2013 J2 (McNaught)                                     MPC 91613
    PK13N030  2014 02 17.4394  3.006798  0.593283  323.9368   17.4640    2.1740  20220228  13.0  4.0  P/2013 N3 (PANSTARRS)                                    MPC 86229
    PK13N050  2013 07  5.4187  1.819038  0.732402  176.9169  187.1563   23.4532  20220228  17.0  4.0  P/2013 N5 (PANSTARRS)                                    MPC 85834
    PK13P010  2013 03  1.6327  3.384569  0.605376  138.2141  160.5905   18.7251  20220228  12.0  4.0  P/2013 P1 (PANSTARRS)                                    MPC 85834
    PK13R030  2024 03 20.0771  2.197620  0.275446   11.2189  341.9939    0.8650  20220228  14.0  4.0  P/2013 R3 (Catalina-PANSTARRS)                           MPC 94671
    PK13R03a  2024 03 19.8190  2.197609  0.275415   11.2579  341.9608    0.8644  20220228   9.0  4.0  P/2013 R3-A (Catalina-PANSTARRS)                         unp
    PK13R03b  2024 03 20.2156  2.197631  0.275461   11.1928  342.0167    0.8657  20220228   9.0  4.0  P/2013 R3-B (Catalina-PANSTARRS)                         MPEC 2015-M77
    PK13T010  2027 10 10.7154  2.201800  0.624179  346.1304   10.0805   24.2981  20220228  16.5  4.0  P/2013 T1 (PANSTARRS)                                    MPC 85835
    PK13T020  2019 11 30.7919  1.741297  0.501217  345.5491    0.8013    9.4574  20220228  16.0  4.0  P/2013 T2 (Schwartz)                                     MPC 86643
    PK13W010  2020 09 10.2366  1.420874  0.592727    1.2577  117.8447    4.6957  20220228  17.5  4.0  P/2013 W1 (PANSTARRS)                                    MPC 91613
    PK13Y46G  2023 01  6.2266  1.785610  0.454792  242.5714   48.8384    7.8568  20220228  10.0  4.0  P/2013 YG46 (Spacewatch)                                 MPC101095
    PK14A020  2028 03 17.0619  2.102113  0.645359  356.1678  106.6299   24.5371  20220228  15.0  4.0  P/2014 A2 (Hill)                                         MPC 89728
    PK14A030  2023 04 20.9312  3.473544  0.247218  213.8840  229.9881   13.7075  20220228  12.0  4.0  P/2014 A3 (PANSTARRS)                                    MPC 92981
    CK14B010  2017 09  6.8199  9.546622  0.997825  345.6712  161.4223   28.4114  20220228   4.0  4.0  C/2014 B1 (Schwartz)                                     MPEC 2021-Y10
    PK14C010  2024 07 28.2261  1.670944  0.449570   23.8958  167.7901    2.6916  20220228  15.5  4.0  P/2014 C1 (TOTAS)                                        MPC102095
    CK14F030  2021 05 21.9764  5.692269  0.619764    3.9259  326.6724    6.5770  20220228   6.0  4.0  C/2014 F3 (Sheppard-Trujillo)                            MPC 94280
    PK14L020  2014 07 21.0351  2.217857  0.648198  182.6892  149.3472    5.1997  20220228  12.0  4.0  P/2014 L2 (NEOWISE)                                      MPC 98560
    PK14L030  2014 07  1.4348  1.852873  0.773324  178.6861  115.4812    6.2735  20220228  16.0  4.0  P/2014 L3 (Hill)                                         MPC 90769
    PK14M040  2029 03 18.8178  2.378015  0.594954  147.9848  263.2209    3.3393  20220228  15.0  4.0  P/2014 M4 (PANSTARRS)                                    MPC 91614
    PK14M04G  2024 09  7.4351  3.713394  0.259205  299.0784  311.7342    9.3695  20220228   9.5  4.0  P/2014 MG4 (Spacewatch-PANSTARRS)                        MPC103844
    PK14O030  2014 04 20.2434  4.653676  0.385334  204.7225   87.6444    7.8011  20220228  10.5  4.0  P/2014 O3 (PANSTARRS)                                    MPC 98560
